NORAD_CAT_ID,OBJECT_NAME,OBJECT_TYPE,EPOCH,MEAN_MOTION,ECCENTRICITY,INCLINATION,RA_OF_ASC_NODE,ARG_OF_PERICENTER,MEAN_ANOMALY,BSTAR,MEAN_MOTION_DOT,MEAN_MOTION_DDOT,TLE_LINE0,TLE_LINE1,TLE_LINE2,SEMIMAJOR_AXIS,PERIOD,APOGEE,PERIGEE,DECAYED
52288.0,STARLINK-3776,PAYLOAD,2022-05-27 02:00:01,15.73171688,0.0003961,53.2155,199.6202,2.7407,2.9387,0.00017771,0.00024368,0.0,0 STARLINK-3776,1 52288U 22041AD  22147.08334491  .00024368  00000-0  17771-3 0  9991,2 52288  53.2155 199.6202 0003961   2.7407   2.9387 15.73171688  6806,6727.976,91.535,352.506,347.176,0.0
52288.0,STARLINK-3776,PAYLOAD,2022-05-27 14:00:01,15.73131791,0.0004337,53.2152,197.1487,2.3636,316.6658,0.00063466,0.00089174,0.0,0 STARLINK-3776,1 52288U 22041AD  22147.58334491  .00089174  00000-0  63466-3 0  9994,2 52288  53.2152 197.1487 0004337   2.3636 316.6658 15.73131791  6884,6728.09,91.537,352.87300000000016,347.037,0.0
52288.0,STARLINK-3776,PAYLOAD,2022-05-27 22:00:01,15.73181021,0.0004063,53.215,195.4972,2.7292,45.2665,0.00050195,0.00070384,0.0,0 STARLINK-3776,1 52288U 22041AD  22147.91668981  .00070384  00000-0  50195-3 0  9993,2 52288  53.2150 195.4972 0004063   2.7292  45.2665 15.73181021  1306,6727.949000000001,91.534,352.548,347.081,0.0
52288.0,STARLINK-3776,PAYLOAD,2022-05-28 13:02:37,15.73236154,0.0004241,53.2158,192.3948,9.6922,350.4179,7.0164e-05,9.252e-05,0.0,0 STARLINK-3776,1 52288U 22041AD  22148.54349423  .00009252  00000-0  70164-4 0  9995,2 52288  53.2158 192.3948 0004241   9.6922 350.4179 15.73236154  5816,6727.792,91.531,352.51,346.80400000000014,0.0
52288.0,STARLINK-3776,PAYLOAD,2022-05-28 14:00:01,15.72942525,0.0003894,53.2168,192.1991,3.7952,222.0774,0.0028377,0.00413328,0.0,0 STARLINK-3776,1 52288U 22041AD  22148.58334491  .00413328  00000-0  28377-2 0  9998,2 52288  53.2168 192.1991 0003894   3.7952 222.0774 15.72942525  7041,6728.629,91.548,353.11400000000015,347.874,0.0
52288.0,STARLINK-3776,PAYLOAD,2022-05-28 22:00:00,15.73226416,0.0004089,53.2151,190.5485,0.9484,313.9161,-0.00010146,-0.00014862,0.0,0 STARLINK-3776,1 52288U 22041AD  22148.91667824 -.00014862  00000-0 -10146-3 0  9992,2 52288  53.2151 190.5485 0004089   0.9484 313.9161 15.73226416  7099,6727.82,91.532,352.436,346.934,0.0
52288.0,STARLINK-3776,PAYLOAD,2022-05-29 14:00:01,15.73150218,0.0004361,53.2146,187.2514,1.1286,131.5782,5.0627e-05,6.474e-05,0.0,0 STARLINK-3776,1 52288U 22041AD  22149.58334491  .00006474  00000-0  50627-4 0  9994,2 52288  53.2146 187.2514 0004361   1.1286 131.5782 15.73150218  7195,6728.0369999999975,91.536,352.836,346.968,0.0
52288.0,STARLINK-3776,PAYLOAD,2022-05-29 19:32:15,15.73186725,0.0004126,53.2157,186.1079,3.9888,356.1165,-2.4321e-05,-4.036e-05,0.0,0 STARLINK-3776,1 52288U 22041AD  22149.81407266 -.00004036  00000-0 -24321-4 0  9997,2 52288  53.2157 186.1079 0004126   3.9888 356.1165 15.73186725  6010,6727.933000000001,91.534,352.574,347.022,0.0
52288.0,STARLINK-3776,PAYLOAD,2022-05-30 12:18:33,15.73190468,0.0004305,53.2155,182.6497,5.4228,354.6838,-4.098100000000001e-05,-6.373e-05,0.0,0 STARLINK-3776,1 52288U 22041AD  22150.51288739 -.00006373  00000-0 -40981-4 0  9994,2 52288  53.2155 182.6497 0004305   5.4228 354.6838 15.73190468  7343,6727.922,91.534,352.684,346.891,0.0
52288.0,STARLINK-3776,PAYLOAD,2022-05-30 14:00:01,15.73267055,0.0004345,53.2141,182.3031,357.3615,41.9786,6.0357e-05,7.881e-05,0.0,0 STARLINK-3776,1 52288U 22041AD  22150.58334491  .00007881  00000-0  60357-4 0  9990,2 52288  53.2141 182.3031 0004345 357.3615  41.9786 15.73267055  1307,6727.704000000002,91.529,352.492,346.646,0.0
52288.0,STARLINK-3776,PAYLOAD,2022-05-30 22:00:00,15.73241697,0.0004056,53.2145,180.6512,357.0815,131.2802,-0.00016013,-0.00023088,0.0,0 STARLINK-3776,1 52288U 22041AD  22150.91667824 -.00023088  00000-0 -16013-3 0  9994,2 52288  53.2145 180.6512 0004056 357.0815 131.2802 15.73241697  7407,6727.776,91.531,352.37,346.913,0.0
52288.0,STARLINK-3776,PAYLOAD,2022-05-31 06:00:02,15.73208441,0.0004158,53.2147,179.0025,0.4917,216.8965,6.5395e-05,8.57e-05,0.0,0 STARLINK-3776,1 52288U 22041AD  22151.25002315  .00008570  00000-0  65395-4 0  9995,2 52288  53.2147 179.0025 0004158   0.4917 216.8965 15.73208441  1308,6727.871,91.533,352.534,346.939,0.0
52288.0,STARLINK-3776,PAYLOAD,2022-05-31 12:42:12,15.73216009,0.0003709,53.2168,177.6195,1.4582,358.6449,3.2749e-05,3.979e-05,0.0,0 STARLINK-3776,1 52288U 22041AD  22151.52930785  .00003979  00000-0  32749-4 0  9991,2 52288  53.2168 177.6195 0003709   1.4582 358.6449 15.73216009  7502,6727.85,91.532,352.21,347.219,0.0
52288.0,STARLINK-3776,PAYLOAD,2022-05-31 22:00:00,15.73164562,0.0003988,53.2142,175.7023,359.3623,35.8494,0.00061611,0.00086638,0.0,0 STARLINK-3776,1 52288U 22041AD  22151.91667824  .00086638  00000-0  61611-3 0  9997,2 52288  53.2142 175.7023 0003988 359.3623  35.8494 15.73164562  7569,6727.996,91.535,352.5440000000001,347.17800000000005,0.0
52288.0,STARLINK-3776,PAYLOAD,2022-06-01 14:00:01,15.73227467,0.000422,53.2141,172.4052,359.2708,213.8346,-0.00012875,-0.00018685,0.0,0 STARLINK-3776,1 52288U 22041AD  22152.58334491 -.00018685  00000-0 -12875-3 0  9999,2 52288  53.2141 172.4052 0004220 359.2708 213.8346 15.73227467  7677,6727.816999999999,91.532,352.521,346.843,0.0
52288.0,STARLINK-3776,PAYLOAD,2022-06-01 20:00:01,15.73218847,0.0003991,53.2147,171.1662,359.7801,190.0432,-8.9514e-05,-0.00013184,0.0,0 STARLINK-3776,1 52288U 22041AD  22152.83334491 -.00013184  00000-0 -89514-4 0  9991,2 52288  53.2147 171.1662 0003991 359.7801 190.0432 15.73218847  1307,6727.840999999999,91.532,352.392,347.021,0.0
52288.0,STARLINK-3776,PAYLOAD,2022-06-03 03:12:46,15.73232554,0.0004215,53.2164,164.7282,6.2701,353.8371,1.7011e-05,1.767e-05,0.0,0 STARLINK-3776,1 52288U 22041AD  22154.13387413  .00001767  00000-0  17011-4 0  9993,2 52288  53.2164 164.7282 0004215   6.2701 353.8371 15.73232554  7910,6727.802,91.531,352.50300000000016,346.832,0.0
52288.0,STARLINK-3776,PAYLOAD,2022-06-03 12:21:39,15.73236165,0.000422,53.217,162.8426,8.5184,351.5907,-3.5251e-07,-6.75e-06,0.0,0 STARLINK-3776,1 52288U 22041AD  22154.51504554 -.00000675  00000-0 -35251-6 0  9999,2 52288  53.2170 162.8426 0004220   8.5184 351.5907 15.73236165  7970,6727.792,91.531,352.496,346.8180000000001,0.0
52288.0,STARLINK-3776,PAYLOAD,2022-06-04 00:33:14,15.73504684,0.0004004,53.2172,160.3272,4.4477,355.6578,0.00036515,0.00051633,0.0,0 STARLINK-3776,1 52288U 22041AD  22155.02308852  .00051633  00000-0  36515-3 0  9998,2 52288  53.2172 160.3272 0004004   4.4477 355.6578 15.73504684  8057,6727.026999999999,91.515,351.585,346.1980000000001,0.0
52288.0,STARLINK-3776,PAYLOAD,2022-06-04 06:39:34,15.73129344,0.0003626,53.2172,159.071,37.9406,322.1869,1.7303e-05,1.799e-05,0.0,0 STARLINK-3776,1 52288U 22041AD  22155.27748232  .00001799  00000-0  17303-4 0  9998,2 52288  53.2172 159.0710 0003626  37.9406 322.1869 15.73129344  8093,6728.097,91.537,352.401,347.522,0.0
52288.0,STARLINK-3776,PAYLOAD,2022-06-05 22:00:00,15.70478346,0.000451,53.2172,150.9668,315.9251,324.4458,-0.006086,-0.00701774,0.0,0 STARLINK-3776,1 52288U 22041AD  22156.91667824 -.00701774  00000-0 -60860-2 0  9993,2 52288  53.2172 150.9668 0004510 315.9251 324.4458 15.70478346  8359,6735.666,91.692,360.569,354.49300000000005,0.0
52288.0,STARLINK-3776,PAYLOAD,2022-06-06 14:00:01,15.69476781,0.0002314,53.2172,147.6826,271.5036,178.9641,-0.0066566,-0.00732567,0.0,0 STARLINK-3776,1 52288U 22041AD  22157.58334491 -.00732567  00000-0 -66566-2 0  9991,2 52288  53.2172 147.6826 0002314 271.5036 178.9641 15.69476781  1309,6738.531,91.75,361.956,358.837,0.0
52288.0,STARLINK-3776,PAYLOAD,2022-06-06 22:00:00,15.68962431,8.53e-05,53.2174,146.0401,343.2238,191.3797,-0.0067331999999999,-0.00725562,0.0,0 STARLINK-3776,1 52288U 22041AD  22157.91667824 -.00725562  00000-0 -67332-2 0  9996,2 52288  53.2174 146.0401 0000853 343.2238 191.3797 15.68962431  8501,6740.004,91.78,362.444,361.294,0.0
52288.0,STARLINK-3776,PAYLOAD,2022-06-07 14:00:01,15.67938531,0.0001049,53.2173,142.7633,76.1809,264.8503,-0.0069453,-0.00718101,0.0,0 STARLINK-3776,1 52288U 22041AD  22158.58334491 -.00718101  00000-0 -69453-2 0  9998,2 52288  53.2173 142.7633 0001049  76.1809 264.8503 15.67938531  1309,6742.938,91.84,365.51,364.095,0.0
52288.0,STARLINK-3776,PAYLOAD,2022-06-07 22:00:00,15.67427224,0.0001127,53.2173,141.1246,61.7753,1.5516,-0.0070661,-0.00715645,0.0,0 STARLINK-3776,1 52288U 22041AD  22158.91667824 -.00715645  00000-0 -70661-2 0  9997,2 52288  53.2173 141.1246 0001127  61.7753   1.5516 15.67427224  1309,6744.404,91.87,367.029,365.509,0.0
52288.0,STARLINK-3776,PAYLOAD,2022-06-08 06:00:02,15.66918395,0.0001383,53.2172,139.4906,56.1243,88.9482,-0.0072342,-0.00717484,0.0,0 STARLINK-3776,1 52288U 22041AD  22159.25002315 -.00717484  00000-0 -72342-2 0  9994,2 52288  53.2172 139.4906 0001383  56.1243  88.9482 15.66918395  8713,6745.864000000001,91.9,368.662,366.796,0.0
52288.0,STARLINK-3776,PAYLOAD,2022-06-08 14:00:01,15.66409594,0.0001214,53.2174,137.855,73.2663,152.81,-0.0074111,-0.00719729,0.0,0 STARLINK-3776,1 52288U 22041AD  22159.58334491 -.00719729  00000-0 -74111-2 0  9993,2 52288  53.2174 137.8550 0001214  73.2663 152.8100 15.66409594  1303,6747.325,91.93,370.009,368.371,0.0
52288.0,STARLINK-3776,PAYLOAD,2022-06-08 22:00:01,15.65896928,0.0001189,53.2176,136.2202,67.6081,238.9911,-0.0075035,-0.00714202,0.0,0 STARLINK-3776,1 52288U 22041AD  22159.91668981 -.00714202  00000-0 -75035-2 0  9991,2 52288  53.2176 136.2202 0001189  67.6081 238.9911 15.65896928  1300,6748.797,91.96,371.465,369.86,0.0
52288.0,STARLINK-3776,PAYLOAD,2022-06-09 06:00:00,15.65389923,0.0001227,53.2176,134.5902,54.895,331.4801,-0.0077224999999999,-0.00719687,0.0,0 STARLINK-3776,1 52288U 22041AD  22160.25001157 -.00719687  00000-0 -77225-2 0  9991,2 52288  53.2176 134.5902 0001227  54.8950 331.4801 15.65389923  8872,6750.255,91.99,372.948,371.291,0.0
